NORAD_CAT_ID,OBJECT_NAME,OBJECT_TYPE,EPOCH,MEAN_MOTION,ECCENTRICITY,INCLINATION,RA_OF_ASC_NODE,ARG_OF_PERICENTER,MEAN_ANOMALY,BSTAR,MEAN_MOTION_DOT,MEAN_MOTION_DDOT,TLE_LINE0,TLE_LINE1,TLE_LINE2,SEMIMAJOR_AXIS,PERIOD,APOGEE,PERIGEE,DECAYED
52641.0,STARLINK-3991,PAYLOAD,2023-10-18 02:33:34,15.08846943,0.0001285,53.2162,220.9911,85.1974,274.9164,0.00019477,2.814e-05,0.0,0 STARLINK-3991,1 52641U 22052AV  23291.10664432  .00002814  00000-0  19477-3 0  9998,2 52641  53.2162 220.9911 0001285  85.1974 274.9164 15.08846943 79257,6917.859,95.437,540.613,538.835,0.0
52641.0,STARLINK-3991,PAYLOAD,2023-10-18 12:05:53,15.08841676,0.0001249,53.2162,219.2071,81.3309,278.7825,0.00026662,3.958e-05,0.0,0 STARLINK-3991,1 52641U 22052AV  23291.50408662  .00003958  00000-0  26662-3 0  9997,2 52641  53.2162 219.2071 0001249  81.3309 278.7825 15.08841676 79686,6917.875,95.437,540.604,538.876,0.0
52641.0,STARLINK-3991,PAYLOAD,2023-10-18 21:38:11,15.08846219,0.0001466,53.2161,217.4223,98.6411,261.4747,0.00025063,3.704e-05,0.0,0 STARLINK-3991,1 52641U 22052AV  23291.90152649  .00003704  00000-0  25063-3 0  9995,2 52641  53.2161 217.4223 0001466  98.6411 261.4747 15.08846219 79376,6917.861,95.437,540.741,538.712,0.0
52641.0,STARLINK-3991,PAYLOAD,2023-10-19 02:24:20,15.08857817,0.0001268,53.2166,216.531,93.9751,266.1386,0.00050305,7.731e-05,0.0,0 STARLINK-3991,1 52641U 22052AV  23292.10024147  .00007731  00000-0  50305-3 0  9990,2 52641  53.2166 216.5310 0001268  93.9751 266.1386 15.08857817 79774,6917.826,95.436,540.568,538.814,0.0
52641.0,STARLINK-3991,PAYLOAD,2023-10-20 03:50:30,15.08854729,0.0001233,53.2148,211.7746,110.3046,249.8079,0.00031032,4.656e-05,0.0,0 STARLINK-3991,1 52641U 22052AV  23293.16007844  .00004656  00000-0  31032-3 0  9991,2 52641  53.2148 211.7746 0001233 110.3046 249.8079 15.08854729 79931,6917.835,95.437,540.553,538.847,0.0
52641.0,STARLINK-3991,PAYLOAD,2023-10-20 18:09:00,15.08832442,0.0001932,53.2158,209.0969,78.1135,282.0073,-2.4315e-05,-6.75e-06,0.0,0 STARLINK-3991,1 52641U 22052AV  23293.75625457 -.00000675  00000-0 -24315-4 0  9998,2 52641  53.2158 209.0969 0001932  78.1135 282.0073 15.08832442 80028,6917.903,95.438,541.105,538.432,0.0
52641.0,STARLINK-3991,PAYLOAD,2023-10-21 11:38:14,15.08840715,0.0001524,53.2164,205.8263,88.1947,271.9219,0.00039154,5.949e-05,0.0,0 STARLINK-3991,1 52641U 22052AV  23294.48489165  .00005949  00000-0  39154-3 0  9996,2 52641  53.2164 205.8263 0001524  88.1947 271.9219 15.08840715 80138,6917.878,95.438,540.797,538.689,0.0
52641.0,STARLINK-3991,PAYLOAD,2023-10-21 22:45:56,15.08864955,0.0001584,53.2156,203.7473,70.8234,289.2929,0.00092863,0.00014532,0.0,0 STARLINK-3991,1 52641U 22052AV  23294.94856556  .00014532  00000-0  92863-3 0  9993,2 52641  53.2156 203.7473 0001584  70.8234 289.2929 15.08864955 79839,6917.804,95.436,540.765,538.573,0.0
52641.0,STARLINK-3991,PAYLOAD,2023-10-22 03:32:04,15.08888816,0.0001666,53.2156,202.8518,87.4651,272.6532,0.0014128,0.00022298,0.0,0 STARLINK-3991,1 52641U 22052AV  23295.14727701  .00022298  00000-0  14128-2 0  9990,2 52641  53.2156 202.8518 0001666  87.4651 272.6532 15.08888816 80231,6917.731,95.434,540.749,538.444,0.0
52641.0,STARLINK-3991,PAYLOAD,2023-10-22 11:29:01,15.08841122,0.0002384,53.2176,201.3648,74.3543,285.7713,-0.0002401,-4.108e-05,0.0,0 STARLINK-3991,1 52641U 22052AV  23295.47848605 -.00004108  00000-0 -24010-3 0  9997,2 52641  53.2176 201.3648 0002384  74.3543 285.7713 15.08841122 80284,6917.877,95.437,541.391,538.093,0.0
52641.0,STARLINK-3991,PAYLOAD,2023-10-22 21:01:20,15.0881114,0.0001738,53.2159,199.582,71.577,288.5411,0.00057812,8.918e-05,0.0,0 STARLINK-3991,1 52641U 22052AV  23295.87593405  .00008918  00000-0  57812-3 0  9993,2 52641  53.2159 199.5820 0001738  71.5770 288.5411 15.08811140 80348,6917.969,95.439,541.036,538.631,0.0
52641.0,STARLINK-3991,PAYLOAD,2023-10-22 22:36:43,15.08811053,0.0001905,53.2164,199.2831,81.7031,278.4178,0.00072266,0.00011223,0.0,0 STARLINK-3991,1 52641U 22052AV  23295.94217536  .00011223  00000-0  72266-3 0  9992,2 52641  53.2164 199.2831 0001905  81.7031 278.4178 15.08811053 79981,6917.969,95.439,541.152,538.516,0.0
52641.0,STARLINK-3991,PAYLOAD,2023-10-23 22:27:31,15.08852808,0.0001887,53.2164,194.8237,71.595,288.5247,0.0016447,0.00025994,0.0,0 STARLINK-3991,1 52641U 22052AV  23296.93578327  .00025994  00000-0  16447-2 0  9998,2 52641  53.2164 194.8237 0001887  71.5950 288.5247 15.08852808 80139,6917.841,95.437,541.012,538.401,0.0
52641.0,STARLINK-3991,PAYLOAD,2023-10-24 03:13:40,15.08864047,0.0001863,53.2164,193.9321,68.7387,291.3804,0.0017861,0.00028271,0.0,0 STARLINK-3991,1 52641U 22052AV  23297.13450091  .00028271  00000-0  17861-2 0  9990,2 52641  53.2164 193.9321 0001863  68.7387 291.3804 15.08864047 80532,6917.807,95.436,540.961,538.383,0.0
52641.0,STARLINK-3991,PAYLOAD,2023-10-25 20:33:41,15.08845167,0.0001737,53.2158,186.1982,81.6678,278.4511,6.907e-07,-2.77e-06,0.0,0 STARLINK-3991,1 52641U 22052AV  23298.85673198 -.00000277  00000-0  69070-6 0  9995,2 52641  53.2158 186.1982 0001737  81.6678 278.4511 15.08845167 80790,6917.865,95.437,540.931,538.528,0.0
52641.0,STARLINK-3991,PAYLOAD,2023-10-26 01:19:50,15.08851681,0.0001782,53.2158,185.3065,77.1096,283.0095,0.00016726,2.376e-05,0.0,0 STARLINK-3991,1 52641U 22052AV  23299.05545004  .00002376  00000-0  16726-3 0  9990,2 52641  53.2158 185.3065 0001782  77.1096 283.0095 15.08851681 80457,6917.845,95.437,540.942,538.477,0.0
52641.0,STARLINK-3991,PAYLOAD,2023-10-26 20:24:28,15.08844147,0.0001973,53.217,181.7413,92.9356,267.1862,8.0865e-05,9.99e-06,0.0,0 STARLINK-3991,1 52641U 22052AV  23299.85033054  .00000999  00000-0  80865-4 0  9990,2 52641  53.2170 181.7413 0001973  92.9356 267.1862 15.08844147 80571,6917.868,95.437,541.098,538.368,0.0
52641.0,STARLINK-3991,PAYLOAD,2023-10-27 01:10:37,15.08847138,0.0001907,53.2174,180.8466,83.5172,276.6038,0.00023152,3.399e-05,0.0,0 STARLINK-3991,1 52641U 22052AV  23300.04905022  .00003399  00000-0  23152-3 0  9999,2 52641  53.2174 180.8466 0001907  83.5172 276.6038 15.08847138 80979,6917.859,95.437,541.043,538.404,0.0
52641.0,STARLINK-3991,PAYLOAD,2023-10-27 09:07:33,15.08842979,0.0002133,53.2166,179.3606,81.5247,278.5986,0.00021578,3.148e-05,0.0,0 STARLINK-3991,1 52641U 22052AV  23300.38025385  .00003148  00000-0  21578-3 0  9993,2 52641  53.2166 179.3606 0002133  81.5247 278.5986 15.08842979 80658,6917.871,95.437,541.212,538.261,0.0
52641.0,STARLINK-3991,PAYLOAD,2023-10-27 21:50:39,15.08832122,0.000181,53.2165,176.9825,80.1028,280.0168,-8.2356e-05,-1.598e-05,0.0,0 STARLINK-3991,1 52641U 22052AV  23300.91017595 -.00001598  00000-0 -82356-4 0  9997,2 52641  53.2165 176.9825 0001810  80.1028 280.0168 15.08832122 80734,6917.904,95.438,541.022,538.517,0.0
52641.0,STARLINK-3991,PAYLOAD,2023-10-27 23:26:02,15.08833093,0.0001679,53.2165,176.6872,85.1526,274.9657,-6.0115e-05,-1.244e-05,0.0,0 STARLINK-3991,1 52641U 22052AV  23300.97641655 -.00001244  00000-0 -60115-4 0  9990,2 52641  53.2165 176.6872 0001679  85.1526 274.9657 15.08833093 81110,6917.902,95.438,540.928,538.605,0.0
52641.0,STARLINK-3991,PAYLOAD,2023-10-28 08:58:21,15.08837189,0.0001564,53.2161,174.9019,88.5872,271.53,-9.6874e-06,-4.42e-06,0.0,0 STARLINK-3991,1 52641U 22052AV  23301.37385617 -.00000442  00000-0 -96874-5 0  9999,2 52641  53.2161 174.9019 0001564  88.5872 271.5300 15.08837189 80807,6917.889,95.438,540.836,538.672,0.0
52641.0,STARLINK-3991,PAYLOAD,2023-10-28 21:41:26,15.08839997,0.0001342,53.2161,172.5216,89.8293,270.2853,4.2144e-05,3.83e-06,0.0,0 STARLINK-3991,1 52641U 22052AV  23301.90377754  .00000383  00000-0  42144-4 0  9993,2 52641  53.2161 172.5216 0001342  89.8293 270.2853 15.08839997 80881,6917.88,95.438,540.674,538.817,0.0
52641.0,STARLINK-3991,PAYLOAD,2023-10-29 00:52:12,15.08845305,0.0001499,53.2164,171.9239,100.0507,260.0655,0.00013706,1.894e-05,0.0,0 STARLINK-3991,1 52641U 22052AV  23302.03625476  .00001894  00000-0  13706-3 0  9994,2 52641  53.2164 171.9239 0001499 100.0507 260.0655 15.08845305 81270,6917.864,95.437,540.766,538.692,0.0
52641.0,STARLINK-3991,PAYLOAD,2023-10-29 08:49:08,15.08845789,0.000155,53.2161,170.4377,95.8492,264.2677,0.00017449,2.491e-05,0.0,0 STARLINK-3991,1 52641U 22052AV  23302.36745604  .00002491  00000-0  17449-3 0  9998,2 52641  53.2161 170.4377 0001550  95.8492 264.2677 15.08845789 80956,6917.863,95.437,540.8,538.655,0.0
52641.0,STARLINK-3991,PAYLOAD,2023-10-29 21:32:13,15.08852732,0.0001414,53.2158,168.0591,91.2935,268.8219,0.00040552,6.174e-05,0.0,0 STARLINK-3991,1 52641U 22052AV  23302.89737314  .00006174  00000-0  40552-3 0  9998,2 52641  53.2158 168.0591 0001414  91.2935 268.8219 15.08852732 81032,6917.841,95.437,540.685,538.728,0.0
52641.0,STARLINK-3991,PAYLOAD,2023-10-30 08:39:55,15.08843097,0.0001277,53.2154,165.9801,88.5784,271.5355,0.00012713,1.736e-05,0.0,0 STARLINK-3991,1 52641U 22052AV  23303.36105493  .00001736  00000-0  12713-3 0  9995,2 52641  53.2154 165.9801 0001277  88.5784 271.5355 15.08843097 81470,6917.871,95.437,540.619,538.853,0.0
52641.0,STARLINK-3991,PAYLOAD,2023-10-30 21:23:00,15.08836955,0.0001551,53.2169,163.6,97.4456,262.6712,1.3782e-05,-6.9e-07,0.0,0 STARLINK-3991,1 52641U 22052AV  23303.89097896 -.00000069  00000-0  13782-4 0  9997,2 52641  53.2169 163.6000 0001551  97.4456 262.6712 15.08836955 81183,6917.89,95.438,540.828,538.682,0.0
52641.0,STARLINK-3991,PAYLOAD,2023-10-31 00:33:48,15.08777737,0.0001062,53.2146,163.0056,153.5265,206.5782,-0.0013786,-0.00022123,0.0,0 STARLINK-3991,1 52641U 22052AV  23304.02347594 -.00022123  00000-0 -13786-2 0  9994,2 52641  53.2146 163.0056 0001062 153.5265 206.5782 15.08777737 81571,6918.071,95.441,540.67,539.201,0.0
52641.0,STARLINK-3991,PAYLOAD,2023-10-31 21:13:47,15.08848772,0.0001134,53.2162,159.1402,92.6016,267.5106,0.00027591,4.107e-05,0.0,0 STARLINK-3991,1 52641U 22052AV  23304.88457800  .00004107  00000-0  27591-3 0  9990,2 52641  53.2162 159.1402 0001134  92.6016 267.5106 15.08848772 81707,6917.854,95.437,540.503,538.934,0.0
